$$SOE
2461288.500000000, A.D. 2026-Sep-05 00:00:00.0000, 3.702452313846857E+09, -6.486260884163225E+09, 4.082173983058214E+07,
2461295.500000000, A.D. 2026-Sep-12 00:00:00.0000, 3.704547149149090E+09, -6.485715355013302E+09, 4.227925454756355E+07,
2461302.500000000, A.D. 2026-Sep-19 00:00:00.0000, 3.706641579511323E+09, -6.485169119697707E+09, 4.373676428855324E+07,
2461309.500000000, A.D. 2026-Sep-26 00:00:00.0000, 3.708735603609142E+09, -6.484622180019308E+09, 4.519426898978424E+07,
2461316.500000000, A.D. 2026-Oct-03 00:00:00.0000, 3.710829220566948E+09, -6.484074538127816E+09, 4.665176854917240E+07,
2461323.500000000, A.D. 2026-Oct-10 00:00:00.0000, 3.712922429941623E+09, -6.483526196377110E+09, 4.810926283543396E+07,
2461330.500000000, A.D. 2026-Oct-17 00:00:00.0000, 3.715015231671235E+09, -6.482977157256095E+09, 4.956675169354391E+07,
2461337.500000000, A.D. 2026-Oct-24 00:00:00.0000, 3.717107626013200E+09, -6.482427423415670E+09, 5.102423494254732E+07,
2461344.500000000, A.D. 2026-Oct-31 00:00:00.0000, 3.719199613570651E+09, -6.481876997858395E+09, 5.248171235132551E+07,
2461351.500000000, A.D. 2026-Nov-07 00:00:00.0000, 3.721291195746086E+09, -6.481325884216805E+09, 5.393918356745720E+07,
2461358.500000000, A.D. 2026-Nov-14 00:00:00.0000, 3.723382375823170E+09, -6.480774086232948E+09, 5.539664805346060E+07,
2461365.500000000, A.D. 2026-Nov-21 00:00:00.0000, 3.725473158864938E+09, -6.480221605757228E+09, 5.685410525253820E+07,
2461372.500000000, A.D. 2026-Nov-28 00:00:00.0000, 3.727563549430305E+09, -6.479668442274673E+09, 5.831155482982111E+07,
2461379.500000000, A.D. 2026-Dec-05 00:00:00.0000, 3.729653550728432E+09, -6.479114594614932E+09, 5.976899660376501E+07,
2461386.500000000, A.D. 2026-Dec-12 00:00:00.0000, 3.731743165375847E+09, -6.478560061734997E+09, 6.122643040710258E+07,
2461393.500000000, A.D. 2026-Dec-19 00:00:00.0000, 3.733832395869086E+09, -6.478004842568260E+09, 6.268385605125237E+07,
2461400.500000000, A.D. 2026-Dec-26 00:00:00.0000, 3.735921244630407E+09, -6.477448935807955E+09, 6.414127333649206E+07,
2461407.500000000, A.D. 2027-Jan-02 00:00:00.0000, 3.738009713902152E+09, -6.476892339816048E+09, 6.559868206720829E+07,
2461414.500000000, A.D. 2027-Jan-09 00:00:00.0000, 3.740097805606098E+09, -6.476335052637527E+09, 6.705608206322527E+07,
2461421.500000000, A.D. 2027-Jan-16 00:00:00.0000, 3.742185521202077E+09, -6.475777072111559E+09, 6.851347316481113E+07,
2461428.500000000, A.D. 2027-Jan-23 00:00:00.0000, 3.744272861590450E+09, -6.475218396119279E+09, 6.997085522388506E+07,
2461435.500000000, A.D. 2027-Jan-30 00:00:00.0000, 3.746359827244558E+09, -6.474659023016237E+09, 7.142822806030846E+07,
2461442.500000000, A.D. 2027-Feb-06 00:00:00.0000, 3.748446418996243E+09, -6.474098951909598E+09, 7.288559137196350E+07,
2461449.500000000, A.D. 2027-Feb-13 00:00:00.0000, 3.750532639012565E+09, -6.473538181560541E+09, 7.434294474041605E+07,
2461456.500000000, A.D. 2027-Feb-20 00:00:00.0000, 3.752618489598499E+09, -6.472976708702998E+09, 7.580028788412619E+07,
2461463.500000000, A.D. 2027-Feb-27 00:00:00.0000, 3.754703971220628E+09, -6.472414528992392E+09, 7.725762076836538E+07,
2461470.500000000, A.D. 2027-Mar-06 00:00:00.0000, 3.756789082769269E+09, -6.471851638661860E+09, 7.871494345192909E+07,
2461477.500000000, A.D. 2027-Mar-13 00:00:00.0000, 3.758873822458540E+09, -6.471288034836486E+09, 8.017225598472357E+07,
2461484.500000000, A.D. 2027-Mar-20 00:00:00.0000, 3.760958188234773E+09, -6.470723715340193E+09, 8.162955839141226E+07,
2461491.500000000, A.D. 2027-Mar-27 00:00:00.0000, 3.763042177895253E+09, -6.470158678544238E+09, 8.308685067759609E+07,
2461498.500000000, A.D. 2027-Apr-03 00:00:00.0000, 3.765125789120183E+09, -6.469592923305041E+09, 8.454413283591127E+07,
2461505.500000000, A.D. 2027-Apr-10 00:00:00.0000, 3.767209019479099E+09, -6.469026448968287E+09, 8.600140484822607E+07,
2461512.500000000, A.D. 2027-Apr-17 00:00:00.0000, 3.769291866433839E+09, -6.468459255453613E+09, 8.745866668071556E+07,
2461519.500000000, A.D. 2027-Apr-24 00:00:00.0000, 3.771374327417245E+09, -6.467891343482050E+09, 8.891591825942802E+07,
2461526.500000000, A.D. 2027-May-01 00:00:00.0000, 3.773456400287268E+09, -6.467322714918386E+09, 9.037315940113449E+07,
2461533.500000000, A.D. 2027-May-08 00:00:00.0000, 3.775538084463833E+09, -6.466753372480074E+09, 9.183038973243523E+07,
2461540.500000000, A.D. 2027-May-15 00:00:00.0000, 3.777619381251628E+09, -6.466183317859252E+09, 9.328760881236124E+07,
2461547.500000000, A.D. 2027-May-22 00:00:00.0000, 3.779700291784923E+09, -6.465612550849468E+09, 9.474481639012575E+07,
2461554.500000000, A.D. 2027-May-29 00:00:00.0000, 3.781780815950361E+09, -6.465041070945372E+09, 9.620201237032127E+07,
2461561.500000000, A.D. 2027-Jun-05 00:00:00.0000, 3.783860953172563E+09, -6.464468878283616E+09, 9.765919666042185E+07,
2461568.500000000, A.D. 2027-Jun-12 00:00:00.0000, 3.785940703055010E+09, -6.463895973493191E+09, 9.911636912013340E+07,
2461575.500000000, A.D. 2027-Jun-19 00:00:00.0000, 3.788020065545179E+09, -6.463322357390177E+09, 1.005735295666561E+08,
2461582.500000000, A.D. 2027-Jun-26 00:00:00.0000, 3.790099040903364E+09, -6.462748030778255E+09, 1.020306777890882E+08,
2461589.500000000, A.D. 2027-Jul-03 00:00:00.0000, 3.792177629607289E+09, -6.462172994346663E+09, 1.034878135607200E+08,
2461596.500000000, A.D. 2027-Jul-10 00:00:00.0000, 3.794255832229377E+09, -6.461597248656866E+09, 1.049449366467996E+08,
2461603.500000000, A.D. 2027-Jul-17 00:00:00.0000, 3.796333649323010E+09, -6.461020794256843E+09, 1.064020468015189E+08,
2461610.500000000, A.D. 2027-Jul-24 00:00:00.0000, 3.798411081474208E+09, -6.460443631985724E+09, 1.078591437349696E+08,
2461617.500000000, A.D. 2027-Jul-31 00:00:00.0000, 3.800488129930162E+09, -6.459865763233351E+09, 1.093162270318232E+08,
2461624.500000000, A.D. 2027-Aug-07 00:00:00.0000, 3.802564797603894E+09, -6.459287189002947E+09, 1.107732961344380E+08,
2461631.500000000, A.D. 2027-Aug-14 00:00:00.0000, 3.804641088153933E+09, -6.458707908030270E+09, 1.122303505808620E+08,
2461638.500000000, A.D. 2027-Aug-21 00:00:00.0000, 3.806717003757213E+09, -6.458127917323404E+09, 1.136873901661282E+08,
2461645.500000000, A.D. 2027-Aug-28 00:00:00.0000, 3.808792545006260E+09, -6.457547213919991E+09, 1.151444148104572E+08,
2461652.500000000, A.D. 2027-Sep-04 00:00:00.0000, 3.810867711749535E+09, -6.456965795359548E+09, 1.166014244470787E+08,
2461659.500000000, A.D. 2027-Sep-11 00:00:00.0000, 3.812942503479594E+09, -6.456383659532243E+09, 1.180584190034075E+08,
2461666.500000000, A.D. 2027-Sep-18 00:00:00.0000, 3.815016919402268E+09, -6.455800804554147E+09, 1.195153984099517E+08,
2461673.500000000, A.D. 2027-Sep-25 00:00:00.0000, 3.817090958415719E+09, -6.455217228746401E+09, 1.209723626093946E+08,
2461680.500000000, A.D. 2027-Oct-02 00:00:00.0000, 3.819164619074430E+09, -6.454632930690351E+09, 1.224293115609150E+08,
2461687.500000000, A.D. 2027-Oct-09 00:00:00.0000, 3.821237899560673E+09, -6.454047909362826E+09, 1.238862452371020E+08,
2461694.500000000, A.D. 2027-Oct-16 00:00:00.0000, 3.823310797726669E+09, -6.453462164405954E+09, 1.253431636029158E+08,
2461701.500000000, A.D. 2027-Oct-23 00:00:00.0000, 3.825383311467519E+09, -6.452875696536849E+09, 1.268000665522552E+08,
2461708.500000000, A.D. 2027-Oct-30 00:00:00.0000, 3.827455439799679E+09, -6.452288507486477E+09, 1.282569538174543E+08,
2461715.500000000, A.D. 2027-Nov-06 00:00:00.0000, 3.829527183481720E+09, -6.451700598339289E+09, 1.297138250505400E+08,
2461722.500000000, A.D. 2027-Nov-13 00:00:00.0000, 3.831598543191978E+09, -6.451111968349592E+09, 1.311706800885949E+08,
2461729.500000000, A.D. 2027-Nov-20 00:00:00.0000, 3.833669518165014E+09, -6.450522616420367E+09, 1.326275189584169E+08,
2461736.500000000, A.D. 2027-Nov-27 00:00:00.0000, 3.835740106904500E+09, -6.449932542279953E+09, 1.340843417144222E+08,
2461743.500000000, A.D. 2027-Dec-04 00:00:00.0000, 3.837810307948974E+09, -6.449341746442593E+09, 1.355411483701072E+08,
2461750.500000000, A.D. 2027-Dec-11 00:00:00.0000, 3.839880120139908E+09, -6.448750229916705E+09, 1.369979388948245E+08,
2461757.500000000, A.D. 2027-Dec-18 00:00:00.0000, 3.841949542667067E+09, -6.448157993999934E+09, 1.384547132230434E+08,
2461764.500000000, A.D. 2027-Dec-25 00:00:00.0000, 3.844018575043133E+09, -6.447565040162978E+09, 1.399114712620401E+08,
2461771.500000000, A.D. 2028-Jan-01 00:00:00.0000, 3.846087217049048E+09, -6.446971370007550E+09, 1.413682128955331E+08,
$$EOE